{"type": "FeatureCollection", "features": [ {"type": "Feature", "properties": {"norad_id": 34571, "name": "COSMOS 2251 DEB", "group": "cosmos-2251-debris", "lat": 51.63358168953908, "lon": -170.56925493683272, "alt_km": 762.8120416156708, "timestamp": "2025-12-20T07:33:51.207651+00:00", "meta": {"OBJECT_NAME": "COSMOS 2251 DEB", "OBJECT_ID": "1993-036VH", "EPOCH": "2025-12-18T22:10:04.528128", "MEAN_MOTION": 14.48905766, "ECCENTRICITY": 0.0065409, "INCLINATION": 74.0384, "RA_OF_ASC_NODE": 170.8432, "ARG_OF_PERICENTER": 204.4185, "MEAN_ANOMALY": 155.3874, "EPHEMERIS_TYPE": 0, "CLASSIFICATION_TYPE": "U", "NORAD_CAT_ID": 34571, "ELEMENT_SET_NO": 999, "REV_AT_EPOCH": 87383, "BSTAR": 0.0018317465, "MEAN_MOTION_DOT": 7.102e-05, "MEAN_MOTION_DDOT": 0}, "tle": {"line1": "1 34571U 93036VH  25352.92366352  .00007102  00000+0  18317-2 0  9995", "line2": "2 34571  74.0384 170.8432 0065409 204.4185 155.3874 14.48905766873833"}}, "geometry": {"type": "Point", "coordinates": [-170.56925493683272, 51.63358168953908]}}, {"type": "Feature", "properties": {"norad_id": 34572, "name": "COSMOS 2251 DEB", "group": "cosmos-2251-debris", "lat": -46.27004397801644, "lon": 83.81442264446932, "alt_km": 763.9537125319921, "timestamp": "2025-12-20T07:33:51.207661+00:00", "meta": {"OBJECT_NAME": "COSMOS 2251 DEB", "OBJECT_ID": "1993-036VJ", "EPOCH": "2025-12-19T08:52:33.083040", "MEAN_MOTION": 14.50137544, "ECCENTRICITY": 0.0061983, "INCLINATION": 74.0111, "RA_OF_ASC_NODE": 103.0332, "ARG_OF_PERICENTER": 175.7717, "MEAN_ANOMALY": 241.8877, "EPHEMERIS_TYPE": 0, "CLASSIFICATION_TYPE": "U", "NORAD_CAT_ID": 34572, "ELEMENT_SET_NO": 999, "REV_AT_EPOCH": 87474, "BSTAR": 0.0016719, "MEAN_MOTION_DOT": 6.633e-05, "MEAN_MOTION_DDOT": 0}, "tle": {"line1": "1 34572U 93036VJ  25353.36982735  .00006633  00000+0  16719-2 0  9996", "line2": "2 34572  74.0111 103.0332 0061983 175.7717 241.8877 14.50137544874742"}}, "geometry": {"type": "Point", "coordinates": [83.81442264446932, -46.27004397801644]}}, {"type": "Feature", "properties": {"norad_id": 34574, "name": "COSMOS 2251 DEB", "group": "cosmos-2251-debris", "lat": 36.26331359207652, "lon": 40.55475767921331, "alt_km": 609.4231878279306, "timestamp": "2025-12-20T07:33:51.207671+00:00", "meta": {"OBJECT_NAME": "COSMOS 2251 DEB", "OBJECT_ID": "1993-036VL", "EPOCH": "2025-12-19T03:53:34.047168", "MEAN_MOTION": 14.70670537, "ECCENTRICITY": 0.00670673, "INCLINATION": 74.0688, "RA_OF_ASC_NODE": 30.6919, "ARG_OF_PERICENTER": 49.6994, "MEAN_ANOMALY": 6.6582, "EPHEMERIS_TYPE": 0, "CLASSIFICATION_TYPE": "U", "NORAD_CAT_ID": 34574, "ELEMENT_SET_NO": 999, "REV_AT_EPOCH": 88873, "BSTAR": 0.00065499234, "MEAN_MOTION_DOT": 4.099e-05, "MEAN_MOTION_DDOT": 0}, "tle": {"line1": "1 34574U 93036VL  25353.16219962  .00004099  00000+0  65499-3 0  9995", "line2": "2 34574  74.0688  30.6919 0067067  49.6994   6.6582 14.70670537888734"}}, "geometry": {"type": "Point", "coordinates": [40.55475767921331, 36.26331359207652]}}, {"type": "Feature", "properties": {"norad_id": 34576, "name": "COSMOS 2251 DEB", "group": "cosmos-2251-debris", "lat": -43.93386954901846, "lon": 107.83425182984473, "alt_km": 710.6528815810925, "timestamp": "2025-12-20T07:33:51.207681+00:00", "meta": {"OBJECT_NAME": "COSMOS 2251 DEB", "OBJECT_ID": "1993-036VN", "EPOCH": "2025-12-19T15:21:26.249760", "MEAN_MOTION": 14.55469677, "ECCENTRICITY": 0.0008223, "INCLINATION": 74.0343, "RA_OF_ASC_NODE": 125.1243, "ARG_OF_PERICENTER": 262.3221, "MEAN_ANOMALY": 114.6335, "EPHEMERIS_TYPE": 0, "CLASSIFICATION_TYPE": "U", "NORAD_CAT_ID": 34576, "ELEMENT_SET_NO": 999, "REV_AT_EPOCH": 88567, "BSTAR": 0.00058339, "MEAN_MOTION_DOT": 2.511e-05, "MEAN_MOTION_DDOT": 0}, "tle": {"line1": "1 34576U 93036VN  25353.63988715  .00002511  00000+0  58339-3 0  9990", "line2": "2 34576  74.0343 125.1243 0008223 262.3221 114.6335 14.55469677885670"}}, "geometry": {"type": "Point", "coordinates": [107.83425182984473, -43.93386954901846]}}, {"type": "Feature", "properties": {"norad_id": 34579, "name": "COSMOS 2251 DEB", "group": "cosmos-2251-debris", "lat": -68.73392117837241, "lon": 77.07353654959242, "alt_km": 729.6136430536144, "timestamp": "2025-12-20T07:33:51.207691+00:00", "meta": {"OBJECT_NAME": "COSMOS 2251 DEB", "OBJECT_ID": "1993-036VR", "EPOCH": "2025-12-19T07:40:08.255136", "MEAN_MOTION": 14.45325476, "ECCENTRICITY": 0.0027538, "INCLINATION": 74.0518, "RA_OF_ASC_NODE": 211.6432, "ARG_OF_PERICENTER": 279.3076, "MEAN_ANOMALY": 198.168, "EPHEMERIS_TYPE": 0, "CLASSIFICATION_TYPE": "U", "NORAD_CAT_ID": 34579, "ELEMENT_SET_NO": 999, "REV_AT_EPOCH": 88269, "BSTAR": 0.00027802, "MEAN_MOTION_DOT": 9.54e-06, "MEAN_MOTION_DDOT": 0}, "tle": {"line1": "1 34579U 93036VR  25353.31953999  .00000954  00000+0  27802-3 0  9994", "line2": "2 34579  74.0518 211.6432 0027538 279.3076 198.1680 14.45325476882690"}}, "geometry": {"type": "Point", "coordinates": [77.07353654959242, -68.73392117837241]}}, {"type": "Feature", "properties": {"norad_id": 34582, "name": "COSMOS 2251 DEB", "group": "cosmos-2251-debris", "lat": 37.46024370621674, "lon": 65.60581707180592, "alt_km": 768.1057978613708, "timestamp": "2025-12-20T07:33:51.207701+00:00", "meta": {"OBJECT_NAME": "COSMOS 2251 DEB", "OBJECT_ID": "1993-036VU", "EPOCH": "2025-12-19T17:36:33.455520", "MEAN_MOTION": 14.43359214, "ECCENTRICITY": 0.00482467, "INCLINATION": 74.0201, "RA_OF_ASC_NODE": 259.3701, "ARG_OF_PERICENTER": 7.9691, "MEAN_ANOMALY": 352.222, "EPHEMERIS_TYPE": 0, "CLASSIFICATION_TYPE": "U", "NORAD_CAT_ID": 34582, "ELEMENT_SET_NO": 999, "REV_AT_EPOCH": 88048, "BSTAR": 0.00054405776, "MEAN_MOTION_DOT": 1.834e-05, "MEAN_MOTION_DDOT": 0}, "tle": {"line1": "1 34582U 93036VU  25353.73372055  .00001834  00000+0  54406-3 0  9990", "line2": "2 34582  74.0201 259.3701 0048246   7.9691 352.2220 14.43359214880481"}}, "geometry": {"type": "Point", "coordinates": [65.60581707180592, 37.46024370621674]}}, {"type": "Feature", "properties": {"norad_id": 34588, "name": "COSMOS 2251 DEB", "group": "cosmos-2251-debris", "lat": 19.81210576840814, "lon": 68.3026270813061, "alt_km": 762.9630111740062, "timestamp": "2025-12-20T07:33:51.207711+00:00", "meta": {"OBJECT_NAME": "COSMOS 2251 DEB", "OBJECT_ID": "1993-036WA", "EPOCH": "2025-12-19T04:54:50.443200", "MEAN_MOTION": 14.42040162, "ECCENTRICITY": 0.0019267, "INCLINATION": 74.043, "RA_OF_ASC_NODE": 256.2759, "ARG_OF_PERICENTER": 308.2893, "MEAN_ANOMALY": 208.8114, "EPHEMERIS_TYPE": 0, "CLASSIFICATION_TYPE": "U", "NORAD_CAT_ID": 34588, "ELEMENT_SET_NO": 999, "REV_AT_EPOCH": 88043, "BSTAR": 0.00032757037, "MEAN_MOTION_DOT": 1.051e-05, "MEAN_MOTION_DDOT": 0}, "tle": {"line1": "1 34588U 93036WA  25353.20475050  .00001051  00000+0  32757-3 0  9993", "line2": "2 34588  74.0430 256.2759 0019267 308.2893 208.8114 14.42040162880433"}}, "geometry": {"type": "Point", "coordinates": [68.3026270813061, 19.81210576840814]}}, {"type": "Feature", "properties": {"norad_id": 34589, "name": "COSMOS 2251 DEB", "group": "cosmos-2251-debris", "lat": -73.17470643792352, "lon": -29.33625439111076, "alt_km": 881.9932680188622, "timestamp": "2025-12-20T07:33:51.207721+00:00", "meta": {"OBJECT_NAME": "COSMOS 2251 DEB", "OBJECT_ID": "1993-036WB", "EPOCH": "2025-12-19T13:38:04.639200", "MEAN_MOTION": 13.86059262, "ECCENTRICITY": 0.0252128, "INCLINATION": 73.925, "RA_OF_ASC_NODE": 44.3965, "ARG_OF_PERICENTER": 346.3595, "MEAN_ANOMALY": 165.0467, "EPHEMERIS_TYPE": 0, "CLASSIFICATION_TYPE": "U", "NORAD_CAT_ID": 34589, "ELEMENT_SET_NO": 999, "REV_AT_EPOCH": 84806, "BSTAR": 0.00027367, "MEAN_MOTION_DOT": 3.8e-06, "MEAN_MOTION_DDOT": 0}, "tle": {"line1": "1 34589U 93036WB  25353.56810925  .00000380  00000+0  27367-3 0  9992", "line2": "2 34589  73.9250  44.3965 0252128 346.3595 165.0467 13.86059262848060"}}, "geometry": {"type": "Point", "coordinates": [-29.33625439111076, -73.17470643792352]}}, {"type": "Feature", "properties": {"norad_id": 34590, "name": "COSMOS 2251 DEB", "group": "cosmos-2251-debris", "lat": -23.8749829518275, "lon": -59.054434737275315, "alt_km": 723.4745921107115, "timestamp": "2025-12-20T07:33:51.207731+00:00", "meta": {"OBJECT_NAME": "COSMOS 2251 DEB", "OBJECT_ID": "1993-036WC", "EPOCH": "2025-12-19T05:33:46.179072", "MEAN_MOTION": 14.5483298, "ECCENTRICITY": 0.0067997, "INCLINATION": 74.0441, "RA_OF_ASC_NODE": 310.2692, "ARG_OF_PERICENTER": 77.9732, "MEAN_ANOMALY": 346.1753, "EPHEMERIS_TYPE": 0, "CLASSIFICATION_TYPE": "U", "NORAD_CAT_ID": 34590, "ELEMENT_SET_NO": 999, "REV_AT_EPOCH": 89215, "BSTAR": 0.00010011, "MEAN_MOTION_DOT": 4.13e-06, "MEAN_MOTION_DDOT": 0}, "tle": {"line1": "1 34590U 93036WC  25353.23178448  .00000413  00000+0  10011-3 0  9990", "line2": "2 34590  74.0441 310.2692 0067997  77.9732 346.1753 14.54832980892157"}}, "geometry": {"type": "Point", "coordinates": [-59.054434737275315, -23.8749829518275]}}, {"type": "Feature", "properties": {"norad_id": 34609, "name": "COSMOS 2251 DEB", "group": "cosmos-2251-debris", "lat": -67.91597163547182, "lon": 46.85527111652177, "alt_km": 731.7145669540259, "timestamp": "2025-12-20T07:33:51.207741+00:00", "meta": {"OBJECT_NAME": "COSMOS 2251 DEB", "OBJECT_ID": "1993-036WE", "EPOCH": "2025-12-19T06:43:05.056032", "MEAN_MOTION": 14.21814448, "ECCENTRICITY": 0.0145469, "INCLINATION": 73.7337, "RA_OF_ASC_NODE": 94.7686, "ARG_OF_PERICENTER": 313.2418, "MEAN_ANOMALY": 75.7069, "EPHEMERIS_TYPE": 0, "CLASSIFICATION_TYPE": "U", "NORAD_CAT_ID": 34609, "ELEMENT_SET_NO": 999, "REV_AT_EPOCH": 86725, "BSTAR": 0.00051747, "MEAN_MOTION_DOT": 1.24e-05, "MEAN_MOTION_DDOT": 0}, "tle": {"line1": "1 34609U 93036WE  25353.27991963  .00001240  00000+0  51747-3 0  9990", "line2": "2 34609  73.7337  94.7686 0145469 313.2418  75.7069 14.21814448867254"}}, "geometry": {"type": "Point", "coordinates": [46.85527111652177, -67.91597163547182]}}]}